CCSDS_OMM_VERS = 2.0
CREATION_DATE  = 
ORIGINATOR     = 

OBJECT_NAME    = NAVSTAR 85 (USA 581)
OBJECT_ID      = 2026-017A
CENTER_NAME    = EARTH
REF_FRAME      = TEME
TIME_SYSTEM    = UTC
MEAN_ELEMENT_THEORY = SGP/SGP4

EPOCH          = 2026-02-24T12:28:07.091328
MEAN_MOTION    = 2.00560949
ECCENTRICITY   = .00012063
INCLINATION    = 55.0130
RA_OF_ASC_NODE = 93.2756
ARG_OF_PERICENTER = 28.8360
MEAN_ANOMALY   = 331.2338

EPHEMERIS_TYPE = 0
CLASSIFICATION_TYPE = U
NORAD_CAT_ID   = 67588
ELEMENT_SET_NO = 999
REV_AT_EPOCH   = 42935
BSTAR          = 0
MEAN_MOTION_DOT = -.3E-7
MEAN_MOTION_DDOT = 0

CCSDS_OMM_VERS = 2.0
CREATION_DATE  = 
ORIGINATOR     = 

OBJECT_NAME    = STARLINK-36641
OBJECT_ID      = 2026-018A
CENTER_NAME    = EARTH
REF_FRAME      = TEME
TIME_SYSTEM    = UTC
MEAN_ELEMENT_THEORY = SGP/SGP4

EPOCH          = 2026-02-27T03:19:26.323968
MEAN_MOTION    = 15.75176228
ECCENTRICITY   = .0001818
INCLINATION    = 97.2834
RA_OF_ASC_NODE = 123.3762
ARG_OF_PERICENTER = 316.6053
MEAN_ANOMALY   = 43.5069

EPHEMERIS_TYPE = 0
CLASSIFICATION_TYPE = U
NORAD_CAT_ID   = 67589
ELEMENT_SET_NO = 999
REV_AT_EPOCH   = 564
BSTAR          = .13676E-2
MEAN_MOTION_DOT = .208802E-2
MEAN_MOTION_DDOT = 0

CCSDS_OMM_VERS = 2.0
CREATION_DATE  = 
ORIGINATOR     = 

OBJECT_NAME    = STARLINK-36376
OBJECT_ID      = 2026-018B
CENTER_NAME    = EARTH
REF_FRAME      = TEME
TIME_SYSTEM    = UTC
MEAN_ELEMENT_THEORY = SGP/SGP4

EPOCH          = 2026-02-27T02:53:31.324416
MEAN_MOTION    = 15.75319474
ECCENTRICITY   = .0001543
INCLINATION    = 97.2849
RA_OF_ASC_NODE = 123.4063
ARG_OF_PERICENTER = 99.9456
MEAN_ANOMALY   = 260.1983

EPHEMERIS_TYPE = 0
CLASSIFICATION_TYPE = U
NORAD_CAT_ID   = 67590
ELEMENT_SET_NO = 999
REV_AT_EPOCH   = 564
BSTAR          = .18608E-2
MEAN_MOTION_DOT = .288627E-2
MEAN_MOTION_DDOT = 0

CCSDS_OMM_VERS = 2.0
CREATION_DATE  = 
ORIGINATOR     = 

OBJECT_NAME    = STARLINK-36391
OBJECT_ID      = 2026-018C
CENTER_NAME    = EARTH
REF_FRAME      = TEME
TIME_SYSTEM    = UTC
MEAN_ELEMENT_THEORY = SGP/SGP4

EPOCH          = 2026-02-27T04:00:01.999584
MEAN_MOTION    = 15.75283201
ECCENTRICITY   = .0001791
INCLINATION    = 97.2844
RA_OF_ASC_NODE = 123.5317
ARG_OF_PERICENTER = 71.0431
MEAN_ANOMALY   = 14.7490

EPHEMERIS_TYPE = 0
CLASSIFICATION_TYPE = U
NORAD_CAT_ID   = 67591
ELEMENT_SET_NO = 999
REV_AT_EPOCH   = 570
BSTAR          = -.13769E-2
MEAN_MOTION_DOT = -.201565E-2
MEAN_MOTION_DDOT = 0

CCSDS_OMM_VERS = 2.0
CREATION_DATE  = 
ORIGINATOR     = 

OBJECT_NAME    = STARLINK-36603
OBJECT_ID      = 2026-018D
CENTER_NAME    = EARTH
REF_FRAME      = TEME
TIME_SYSTEM    = UTC
MEAN_ELEMENT_THEORY = SGP/SGP4

EPOCH          = 2026-02-27T02:47:25.148256
MEAN_MOTION    = 15.75351476
ECCENTRICITY   = .0000841
INCLINATION    = 97.2843
RA_OF_ASC_NODE = 123.4083
ARG_OF_PERICENTER = 68.8226
MEAN_ANOMALY   = 291.3129

EPHEMERIS_TYPE = 0
CLASSIFICATION_TYPE = U
NORAD_CAT_ID   = 67592
ELEMENT_SET_NO = 999
REV_AT_EPOCH   = 564
BSTAR          = .23131E-2
MEAN_MOTION_DOT = .362484E-2
MEAN_MOTION_DDOT = 0

CCSDS_OMM_VERS = 2.0
CREATION_DATE  = 
ORIGINATOR     = 

OBJECT_NAME    = STARLINK-36634
OBJECT_ID      = 2026-018E
CENTER_NAME    = EARTH
REF_FRAME      = TEME
TIME_SYSTEM    = UTC
MEAN_ELEMENT_THEORY = SGP/SGP4

EPOCH          = 2026-02-27T04:07:43.606272
MEAN_MOTION    = 15.75148707
ECCENTRICITY   = .0002589
INCLINATION    = 97.2844
RA_OF_ASC_NODE = 123.4856
ARG_OF_PERICENTER = 13.5785
MEAN_ANOMALY   = 346.5549

EPHEMERIS_TYPE = 0
CLASSIFICATION_TYPE = U
NORAD_CAT_ID   = 67593
ELEMENT_SET_NO = 999
REV_AT_EPOCH   = 565
BSTAR          = .17114E-2
MEAN_MOTION_DOT = .262687E-2
MEAN_MOTION_DDOT = 0

CCSDS_OMM_VERS = 2.0
CREATION_DATE  = 
ORIGINATOR     = 

OBJECT_NAME    = STARLINK-36638
OBJECT_ID      = 2026-018F
CENTER_NAME    = EARTH
REF_FRAME      = TEME
TIME_SYSTEM    = UTC
MEAN_ELEMENT_THEORY = SGP/SGP4

EPOCH          = 2026-02-27T04:00:01.999584
MEAN_MOTION    = 15.76587386
ECCENTRICITY   = .0001707
INCLINATION    = 97.2844
RA_OF_ASC_NODE = 123.5406
ARG_OF_PERICENTER = 65.1390
MEAN_ANOMALY   = 41.7515

EPHEMERIS_TYPE = 0
CLASSIFICATION_TYPE = U
NORAD_CAT_ID   = 67594
ELEMENT_SET_NO = 999
REV_AT_EPOCH   = 565
BSTAR          = -.1162E-1
MEAN_MOTION_DOT = -.1607441E-1
MEAN_MOTION_DDOT = 0

CCSDS_OMM_VERS = 2.0
CREATION_DATE  = 
ORIGINATOR     = 

OBJECT_NAME    = STARLINK-36628
OBJECT_ID      = 2026-018G
CENTER_NAME    = EARTH
REF_FRAME      = TEME
TIME_SYSTEM    = UTC
MEAN_ELEMENT_THEORY = SGP/SGP4

EPOCH          = 2026-02-27T03:01:39.061056
MEAN_MOTION    = 15.75350713
ECCENTRICITY   = .0001336
INCLINATION    = 97.2856
RA_OF_ASC_NODE = 123.3963
ARG_OF_PERICENTER = 121.0237
MEAN_ANOMALY   = 239.1160

EPHEMERIS_TYPE = 0
CLASSIFICATION_TYPE = U
NORAD_CAT_ID   = 67595
ELEMENT_SET_NO = 999
REV_AT_EPOCH   = 564
BSTAR          = .23495E-2
MEAN_MOTION_DOT = .368411E-2
MEAN_MOTION_DDOT = 0

CCSDS_OMM_VERS = 2.0
CREATION_DATE  = 
ORIGINATOR     = 

OBJECT_NAME    = STARLINK-36629
OBJECT_ID      = 2026-018H
CENTER_NAME    = EARTH
REF_FRAME      = TEME
TIME_SYSTEM    = UTC
MEAN_ELEMENT_THEORY = SGP/SGP4

EPOCH          = 2026-02-27T03:12:49.899168
MEAN_MOTION    = 15.75334727
ECCENTRICITY   = .0001676
INCLINATION    = 97.2826
RA_OF_ASC_NODE = 123.3824
ARG_OF_PERICENTER = 109.4132
MEAN_ANOMALY   = 250.7315

EPHEMERIS_TYPE = 0
CLASSIFICATION_TYPE = U
NORAD_CAT_ID   = 67596
ELEMENT_SET_NO = 999
REV_AT_EPOCH   = 564
BSTAR          = .20705E-2
MEAN_MOTION_DOT = .322663E-2
MEAN_MOTION_DDOT = 0

CCSDS_OMM_VERS = 2.0
CREATION_DATE  = 
ORIGINATOR     = 

OBJECT_NAME    = STARLINK-36384
OBJECT_ID      = 2026-018J
CENTER_NAME    = EARTH
REF_FRAME      = TEME
TIME_SYSTEM    = UTC
MEAN_ELEMENT_THEORY = SGP/SGP4

EPOCH          = 2026-02-27T03:46:53.470848
MEAN_MOTION    = 15.75184478
ECCENTRICITY   = .0004203
INCLINATION    = 97.2823
RA_OF_ASC_NODE = 123.5026
ARG_OF_PERICENTER = 107.8585
MEAN_ANOMALY   = 252.3139

EPHEMERIS_TYPE = 0
CLASSIFICATION_TYPE = U
NORAD_CAT_ID   = 67597
ELEMENT_SET_NO = 999
REV_AT_EPOCH   = 565
BSTAR          = .15694E-2
MEAN_MOTION_DOT = .240676E-2
MEAN_MOTION_DDOT = 0

CCSDS_OMM_VERS = 2.0
CREATION_DATE  = 
ORIGINATOR     = 

OBJECT_NAME    = STARLINK-36358
OBJECT_ID      = 2026-018K
CENTER_NAME    = EARTH
REF_FRAME      = TEME
TIME_SYSTEM    = UTC
MEAN_ELEMENT_THEORY = SGP/SGP4

EPOCH          = 2026-02-27T03:04:11.719488
MEAN_MOTION    = 15.75417528
ECCENTRICITY   = .000161
INCLINATION    = 97.2840
RA_OF_ASC_NODE = 123.3915
ARG_OF_PERICENTER = 334.0434
MEAN_ANOMALY   = 26.0751

EPHEMERIS_TYPE = 0
CLASSIFICATION_TYPE = U
NORAD_CAT_ID   = 67598
ELEMENT_SET_NO = 999
REV_AT_EPOCH   = 564
BSTAR          = .21597E-2
MEAN_MOTION_DOT = .338416E-2
MEAN_MOTION_DDOT = 0

CCSDS_OMM_VERS = 2.0
CREATION_DATE  = 
ORIGINATOR     = 

OBJECT_NAME    = STARLINK-36582
OBJECT_ID      = 2026-018L
CENTER_NAME    = EARTH
REF_FRAME      = TEME
TIME_SYSTEM    = UTC
MEAN_ELEMENT_THEORY = SGP/SGP4

EPOCH          = 2026-02-27T04:13:18.946272
MEAN_MOTION    = 15.75181105
ECCENTRICITY   = .0002972
INCLINATION    = 97.2820
RA_OF_ASC_NODE = 123.4791
ARG_OF_PERICENTER = 345.1189
MEAN_ANOMALY   = 14.9988

EPHEMERIS_TYPE = 0
CLASSIFICATION_TYPE = U
NORAD_CAT_ID   = 67599
ELEMENT_SET_NO = 999
REV_AT_EPOCH   = 570
BSTAR          = .13888E-2
MEAN_MOTION_DOT = .212192E-2
MEAN_MOTION_DDOT = 0

